     2.100          NAVIGATION                              RINEX VERSION / TYPE
fic2rin                                 08/21/2011 00:13:53 PGM / RUN BY / DATE
                                                            END OF HEADER
14 11  8 20  9 59 44.0  .168004073203D-03  .193267624127D-11  .000000000000D+00
     .120000000000D+02 -.104375000000D+02  .433089468486D-08 -.262848349704D+01
    -.484287738800D-06  .613851950038D-02  .426732003689D-05  .515370005798D+04
     .554384000000D+06  .132247805595D-06 -.221372788242D+00 -.502914190292D-07
     .982004834043D+00  .307281250000D+03 -.210581287469D+01 -.804640659370D-08
    -.116433421348D-09  .100000000000D+01  .164900000000D+04  .000000000000D+00
     .240000000000D+01  .000000000000D+00 -.884756445885D-08  .120000000000D+02
     .547206000000D+06  .400000000000D+01
30 11  8 20  9 59 44.0  .929790548980D-04 -.147792889038D-11  .000000000000D+00
     .100000000000D+01 -.293750000000D+01  .470162441296D-08 -.114170816436D+01
    -.987201929092D-07  .117551876465D-01  .781193375587D-05  .515543952179D+04
     .554384000000D+06 -.180676579475D-06  .171280454966D+01  .216066837311D-06
     .956079384590D+00  .225562500000D+03  .156728413405D+01 -.826784438891D-08
     .222866426138D-09  .100000000000D+01  .164900000000D+04  .000000000000D+00
     .240000000000D+01  .000000000000D+00 -.419095158577D-08  .100000000000D+01
     .547206000000D+06  .400000000000D+01
 1 11  8 20 10  0  0.0 -.766525045037D-05 -.136424205266D-11  .000000000000D+00
     .600000000000D+02  .381250000000D+01  .438232539859D-08 -.374049554791D+00
     .931322574615D-07  .262719811872D-03  .975094735622D-05  .515367211723D+04
     .554400000000D+06 -.298023223877D-07 -.238433761227D+01 -.465661287308D-07
     .960444698491D+00  .189625000000D+03  .223776642503D+01 -.789854329175D-08
    -.106075847056D-09  .100000000000D+01  .164900000000D+04  .000000000000D+00
     .340000000000D+01  .630000000000D+02  .791624188423D-08  .600000000000D+02
     .547206000000D+06  .400000000000D+01
 2 11  8 20 10  0  0.0  .352146103978D-03  .170530256582D-11  .000000000000D+00
     .111000000000D+03  .631250000000D+01  .476269838550D-08  .262471319727D+01
     .447034835815D-06  .104168410180D-01  .961869955063D-05  .515380348206D+04
     .554400000000D+06 -.199303030968D-06 -.239200680816D+01 -.931322574615D-08
     .939055646820D+00  .178968750000D+03 -.295018373673D+01 -.798461830569D-08
    -.614311302817D-10  .100000000000D+01  .164900000000D+04  .000000000000D+00
     .240000000000D+01  .000000000000D+00 -.172294676304D-07  .111000000000D+03
     .547206000000D+06  .400000000000D+01
 3 11  8 20 10  0  0.0  .757257919759D-03  .488853402203D-11  .000000000000D+00
     .107000000000D+03 -.344062500000D+02  .522200323168D-08  .281430426579D+01
    -.181607902050D-05  .146721148631D-01  .587664544582D-05  .515366658783D+04
     .554400000000D+06  .126659870148D-06  .273226774345D+01 -.124797224998D-06
     .929549907965D+00  .247093750000D+03  .112138032956D+01 -.817284043161D-08
     .189293599124D-10  .100000000000D+01  .164900000000D+04  .000000000000D+00
     .240000000000D+01  .000000000000D+00 -.465661287308D-08  .107000000000D+03
     .547206000000D+06  .400000000000D+01
 4 11  8 20 10  0  0.0  .206831377000D-03  .110276232590D-10  .000000000000D+00
     .950000000000D+02  .896875000000D+01  .489484674716D-08 -.413920095285D+00
     .696629285812D-06  .969773239922D-02  .926665961742D-05  .515369373703D+04
     .554400000000D+06  .372529029846D-07 -.237475514190D+01  .150874257088D-06
     .938128885291D+00  .188843750000D+03  .750967145847D+00 -.830677458193D-08
    -.392873507616D-10  .100000000000D+01  .164900000000D+04  .000000000000D+00
     .340000000000D+01  .000000000000D+00 -.651925802231D-08  .950000000000D+02
     .547206000000D+06  .400000000000D+01
 5 11  8 20 10  0  0.0 -.206522643566D-03 -.534328137292D-11  .000000000000D+00
     .420000000000D+02  .743437500000D+02  .479948563213D-08 -.158539213111D+01
     .358000397682D-05  .232058146503D-02  .645406544209D-05  .515373446083D+04
     .554400000000D+06 -.931322574615D-08 -.132961710384D+01 -.316649675369D-07
     .953050180103D+00  .249750000000D+03  .147929347223D+00 -.817105464294D-08
     .187507810453D-09  .100000000000D+01  .164900000000D+04  .000000000000D+00
     .240000000000D+01  .000000000000D+00 -.102445483208D-07  .420000000000D+02
     .547206000000D+06  .400000000000D+01
 6 11  8 20 10  0  0.0 -.917548313737D-04  .101181285572D-10  .000000000000D+00
     .820000000000D+02 -.327187500000D+02  .515521473539D-08 -.146427475877D+01
    -.164657831192D-05  .673345057294D-02  .650249421597D-05  .515362948036D+04
     .554400000000D+06 -.931322574615D-07  .280658695014D+01  .260770320892D-07
     .936657850942D+00  .243968750000D+03 -.709118277828D+00 -.839927843509D-08
     .742888087128D-10  .100000000000D+01  .164900000000D+04  .000000000000D+00
     .240000000000D+01  .000000000000D+00 -.465661287308D-08  .820000000000D+02
     .547206000000D+06  .400000000000D+01
 7 11  8 20 10  0  0.0  .228728167713D-04  .170530256582D-11  .000000000000D+00
     .109000000000D+03 -.362500000000D+02  .420374653149D-08  .116055982851D+01
    -.174343585968D-05  .487647147384D-02  .739283859730D-05  .515364646912D+04
     .554400000000D+06  .502914190292D-07  .776693606258D+00 -.931322574615D-08
     .975064945243D+00  .241531250000D+03 -.310372799761D+01 -.796818904991D-08
    -.179650340301D-09  .100000000000D+01  .164900000000D+04  .000000000000D+00
     .240000000000D+01  .000000000000D+00 -.107102096081D-07  .109000000000D+03
     .547206000000D+06  .400000000000D+01
 8 11  8 20 10  0  0.0  .895373523235D-05  .227373675443D-12  .000000000000D+00
     .290000000000D+02 -.307187500000D+02  .367086719207D-08  .679201055976D+00
    -.163540244102D-05  .119342758553D-01  .760331749916D-05  .515357832527D+04
     .554400000000D+06  .109896063805D-06  .853983645538D+00  .106170773506D-06
     .996835482062D+00  .246875000000D+03 -.305507151931D+01 -.774996567432D-08
    -.182507602174D-09  .100000000000D+01  .164900000000D+04  .000000000000D+00
     .240000000000D+01  .000000000000D+00 -.419095158577D-08  .290000000000D+02
     .547206000000D+06  .400000000000D+01
 9 11  8 20 10  0  0.0  .100354198366D-03  .238742359215D-11  .000000000000D+00
     .610000000000D+02 -.413437500000D+02  .409945647310D-08  .443685957781D+00
    -.213459134102D-05  .173432441661D-01  .842474400997D-05  .515366347122D+04
     .554400000000D+06 -.193715095520D-06  .748882860629D+00 -.298023223877D-07
     .983953416055D+00  .233687500000D+03  .159515737115D+01 -.815141096756D-08
    -.171792870148D-09  .100000000000D+01  .164900000000D+04  .000000000000D+00
     .240000000000D+01  .000000000000D+00 -.558793544769D-08  .610000000000D+02
     .547206000000D+06  .400000000000D+01
10 11  8 20 10  0  0.0 -.105174258351D-04 -.113686837722D-11  .000000000000D+00
     .470000000000D+02  .649375000000D+02  .485341644999D-08 -.136780381978D+01
     .341981649399D-05  .103097513784D-01  .619702041149D-05  .515362964058D+04
     .554400000000D+06  .217929482460D-06 -.130640835324D+01 -.502914190292D-07
     .947983879745D+00  .248718750000D+03  .705371946510D+00 -.820141305034D-08
     .201794119821D-09  .100000000000D+01  .164900000000D+04  .000000000000D+00
     .340000000000D+01  .000000000000D+00 -.232830643654D-08  .470000000000D+02
     .547206000000D+06  .400000000000D+01
11 11  8 20 10  0  0.0 -.178560148925D-03 -.341060513165D-11  .000000000000D+00
     .120000000000D+02 -.213437500000D+02  .618632911401D-08  .131788295747D+01
    -.112131237984D-05  .121108886087D-01  .883825123310D-05  .515367047882D+04
     .554400000000D+06 -.204890966415D-06 -.263361746321D+01  .372529029846D-08
     .888243409509D+00  .172062500000D+03  .957362188195D+00 -.894572976841D-08
    -.252510518077D-09  .100000000000D+01  .164900000000D+04  .000000000000D+00
     .240000000000D+01  .000000000000D+00 -.116415321827D-07  .120000000000D+02
     .547206000000D+06  .400000000000D+01
12 11  8 20 10  0  0.0  .170171260834D-04  .250111042988D-11  .000000000000D+00
     .480000000000D+02 -.215625000000D+01  .424089093584D-08  .942736986540D+00
    -.139698386192D-06  .361364730634D-02  .727176666260D-05  .515368464851D+04
     .554400000000D+06  .502914190292D-07  .183213878432D+01  .108033418655D-06
     .976010639858D+00  .244375000000D+03 -.784387445000D-01 -.791175812791D-08
     .210008747707D-09  .100000000000D+01  .164900000000D+04  .000000000000D+00
     .240000000000D+01  .000000000000D+00 -.121071934700D-07  .480000000000D+02
     .547206000000D+06  .400000000000D+01
13 11  8 20 10  0  0.0  .255506020039D-03 -.181898940355D-11  .000000000000D+00
     .460000000000D+02 -.468750000000D+00  .415160150230D-08 -.265939060826D+01
     .633299350739D-07  .466054072604D-02  .464916229248D-05  .515356009865D+04
     .554400000000D+06  .298023223877D-07 -.196618812866D+00  .104308128357D-06
     .989033284978D+00  .305531250000D+03  .192305965643D+01 -.788997150613D-08
    -.739316509786D-10  .100000000000D+01  .164900000000D+04  .000000000000D+00
     .240000000000D+01  .000000000000D+00 -.111758708954D-07  .460000000000D+02
     .547206000000D+06  .400000000000D+01
15 11  8 20 10  0  0.0 -.109934248030D-03  .170530256582D-11  .000000000000D+00
     .920000000000D+02 -.309375000000D+01  .508521181948D-08 -.297439232747D+01
    -.521540641785D-07  .354034255724D-02  .410713255405D-05  .515366317940D+04
     .554400000000D+06 -.670552253723D-07 -.299913408894D+00 -.484287738800D-07
     .949038554442D+00  .295312500000D+03 -.731367695029D-01 -.835713382245D-08
    -.932181686252D-10  .100000000000D+01  .164900000000D+04  .000000000000D+00
     .240000000000D+01  .000000000000D+00 -.102445483208D-07  .920000000000D+02
     .547206000000D+06  .400000000000D+01
